{
  "type": "FeatureCollection",
  "features": [
    {
      "type": "Feature",
      "properties": {
        "norad_id": 34141,
        "name": "COSMOS 2251 DEB",
        "group": "cosmos-2251-debris",
        "lat": -73.63156793188982,
        "lon": -99.33686114036404,
        "alt_km": 767.6716030021071,
        "timestamp": "2025-12-26T09:30:54.033773+00:00",
        "meta_object_name": "COSMOS 2251 DEB",
        "meta_object_id": "1993-036LN",
        "meta_epoch": "2025-12-26T00:08:49.523136",
        "meta_mean_motion": 14.49371924,
        "meta_eccentricity": 0.0046498,
        "meta_inclination": 74.0118,
        "meta_ra_of_asc_node": 3.9367,
        "meta_arg_of_pericenter": 85.4048,
        "meta_mean_anomaly": 305.2819,
        "meta_ephemeris_type": 0,
        "meta_classification_type": "U",
        "meta_norad_cat_id": 34141,
        "meta_element_set_no": 999,
        "meta_rev_at_epoch": 87886,
        "meta_bstar": 0.0014155,
        "meta_mean_motion_dot": 5.461e-05,
        "meta_mean_motion_ddot": 0,
        "tle_line1": "1 34141U 93036LN  25360.00612874  .00005461  00000+0  14155-2 0  9991",
        "tle_line2": "2 34141  74.0118   3.9367 0046498  85.4048 305.2819 14.49371924878863"
      },
      "geometry": {
        "type": "Point",
        "coordinates": [
          -99.33686114036404,
          -73.63156793188982
        ]
      }
    },
    {
      "type": "Feature",
      "properties": {
        "norad_id": 34270,
        "name": "COSMOS 2251 DEB",
        "group": "cosmos-2251-debris",
        "lat": -68.78096137523873,
        "lon": -127.2940406976594,
        "alt_km": 710.8468480907959,
        "timestamp": "2025-12-26T09:30:54.033784+00:00",
        "meta_object_name": "COSMOS 2251 DEB",
        "meta_object_id": "1993-036LQ",
        "meta_epoch": "2025-12-26T03:18:25.996032",
        "meta_mean_motion": 14.6526064,
        "meta_eccentricity": 0.0048122,
        "meta_inclination": 74.0111,
        "meta_ra_of_asc_node": 280.8077,
        "meta_arg_of_pericenter": 69.5462,
        "meta_mean_anomaly": 291.0864,
        "meta_ephemeris_type": 0,
        "meta_classification_type": "U",
        "meta_norad_cat_id": 34270,
        "meta_element_set_no": 999,
        "meta_rev_at_epoch": 89292,
        "meta_bstar": 0.00048963,
        "meta_mean_motion_dot": 2.653e-05,
        "meta_mean_motion_ddot": 0,
        "tle_line1": "1 34270U 93036LQ  25360.13780088  .00002653  00000+0  48963-3 0  9996",
        "tle_line2": "2 34270  74.0111 280.8077 0048122  69.5462 291.0864 14.65260640892927"
      },
      "geometry": {
        "type": "Point",
        "coordinates": [
          -127.2940406976594,
          -68.78096137523873
        ]
      }
    },
    {
      "type": "Feature",
      "properties": {
        "norad_id": 34271,
        "name": "COSMOS 2251 DEB",
        "group": "cosmos-2251-debris",
        "lat": 29.095312885898224,
        "lon": -16.387857810565546,
        "alt_km": 652.8729263831992,
        "timestamp": "2025-12-26T09:30:54.033794+00:00",
        "meta_object_name": "COSMOS 2251 DEB",
        "meta_object_id": "1993-036LR",
        "meta_epoch": "2025-12-25T13:30:46.228320",
        "meta_mean_motion": 14.7104633,
        "meta_eccentricity": 0.0018087,
        "meta_inclination": 74.0201,
        "meta_ra_of_asc_node": 174.4074,
        "meta_arg_of_pericenter": 227.5372,
        "meta_mean_anomaly": 190.3592,
        "meta_ephemeris_type": 0,
        "meta_classification_type": "U",
        "meta_norad_cat_id": 34271,
        "meta_element_set_no": 999,
        "meta_rev_at_epoch": 88423,
        "meta_bstar": 0.0023085,
        "meta_mean_motion_dot": 0.00014213,
        "meta_mean_motion_ddot": 0,
        "tle_line1": "1 34271U 93036LR  25359.56303505  .00014213  00000+0  23085-2 0  9999",
        "tle_line2": "2 34271  74.0201 174.4074 0018087 227.5372 190.3592 14.71046330884235"
      },
      "geometry": {
        "type": "Point",
        "coordinates": [
          -16.387857810565546,
          29.095312885898224
        ]
      }
    },
    {
      "type": "Feature",
      "properties": {
        "norad_id": 34273,
        "name": "COSMOS 2251 DEB",
        "group": "cosmos-2251-debris",
        "lat": 53.30568513702115,
        "lon": 83.9046061704812,
        "alt_km": 689.5415126154749,
        "timestamp": "2025-12-26T09:30:54.033804+00:00",
        "meta_object_name": "COSMOS 2251 DEB",
        "meta_object_id": "1993-036LT",
        "meta_epoch": "2025-12-24T23:01:23.216736",
        "meta_mean_motion": 14.61329455,
        "meta_eccentricity": 0.00133915,
        "meta_inclination": 74.0357,
        "meta_ra_of_asc_node": 64.0621,
        "meta_arg_of_pericenter": 189.5178,
        "meta_mean_anomaly": 229.6507,
        "meta_ephemeris_type": 0,
        "meta_classification_type": "U",
        "meta_norad_cat_id": 34273,
        "meta_element_set_no": 999,
        "meta_rev_at_epoch": 88800,
        "meta_bstar": 0.00091560083,
        "meta_mean_motion_dot": 4.502e-05,
        "meta_mean_motion_ddot": 0,
        "tle_line1": "1 34273U 93036LT  25358.95929649  .00004502  00000+0  91560-3 0  9990",
        "tle_line2": "2 34273  74.0357  64.0621 0013391 189.5178 229.6507 14.61329455888007"
      },
      "geometry": {
        "type": "Point",
        "coordinates": [
          83.9046061704812,
          53.30568513702115
        ]
      }
    },
    {
      "type": "Feature",
      "properties": {
        "norad_id": 34274,
        "name": "COSMOS 2251 DEB",
        "group": "cosmos-2251-debris",
        "lat": -43.180376435610874,
        "lon": 26.63669379188862,
        "alt_km": 691.9462406130488,
        "timestamp": "2025-12-26T09:30:54.033814+00:00",
        "meta_object_name": "COSMOS 2251 DEB",
        "meta_object_id": "1993-036LU",
        "meta_epoch": "2025-12-25T12:57:34.848288",
        "meta_mean_motion": 14.64921799,
        "meta_eccentricity": 0.0021263,
        "meta_inclination": 74.0037,
        "meta_ra_of_asc_node": 43.9031,
        "meta_arg_of_pericenter": 192.6644,
        "meta_mean_anomaly": 286.8855,
        "meta_ephemeris_type": 0,
        "meta_classification_type": "U",
        "meta_norad_cat_id": 34274,
        "meta_element_set_no": 999,
        "meta_rev_at_epoch": 88863,
        "meta_bstar": 0.0010315,
        "meta_mean_motion_dot": 5.509e-05,
        "meta_mean_motion_ddot": 0,
        "tle_line1": "1 34274U 93036LU  25359.53998667  .00005509  00000+0  10315-2 0  9998",
        "tle_line2": "2 34274  74.0037  43.9031 0021263 192.6644 286.8855 14.64921799888636"
      },
      "geometry": {
        "type": "Point",
        "coordinates": [
          26.63669379188862,
          -43.180376435610874
        ]
      }
    },
    {
      "type": "Feature",
      "properties": {
        "norad_id": 34276,
        "name": "COSMOS 2251 DEB",
        "group": "cosmos-2251-debris",
        "lat": -56.00266703648223,
        "lon": -95.50720813451078,
        "alt_km": 695.7185953549915,
        "timestamp": "2025-12-26T09:30:54.033824+00:00",
        "meta_object_name": "COSMOS 2251 DEB",
        "meta_object_id": "1993-036LW",
        "meta_epoch": "2025-12-25T08:15:09.211104",
        "meta_mean_motion": 14.57306577,
        "meta_eccentricity": 0.0022096,
        "meta_inclination": 74.0233,
        "meta_ra_of_asc_node": 61.3562,
        "meta_arg_of_pericenter": 206.9326,
        "meta_mean_anomaly": 272.4278,
        "meta_ephemeris_type": 0,
        "meta_classification_type": "U",
        "meta_norad_cat_id": 34276,
        "meta_element_set_no": 999,
        "meta_rev_at_epoch": 88776,
        "meta_bstar": 0.00069073,
        "meta_mean_motion_dot": 3.108e-05,
        "meta_mean_motion_ddot": 0,
        "tle_line1": "1 34276U 93036LW  25359.34385661  .00003108  00000+0  69073-3 0  9992",
        "tle_line2": "2 34276  74.0233  61.3562 0022096 206.9326 272.4278 14.57306577887766"
      },
      "geometry": {
        "type": "Point",
        "coordinates": [
          -95.50720813451078,
          -56.00266703648223
        ]
      }
    },
    {
      "type": "Feature",
      "properties": {
        "norad_id": 34297,
        "name": "COSMOS 2251 DEB",
        "group": "cosmos-2251-debris",
        "lat": -40.27963578593756,
        "lon": -114.87153420453917,
        "alt_km": 763.1746997749296,
        "timestamp": "2025-12-26T09:30:54.033834+00:00",
        "meta_object_name": "COSMOS 2251 DEB",
        "meta_object_id": "1993-036MT",
        "meta_epoch": "2025-12-26T03:46:53.844960",
        "meta_mean_motion": 14.36640251,
        "meta_eccentricity": 0.0017792,
        "meta_inclination": 74.0484,
        "meta_ra_of_asc_node": 259.5943,
        "meta_arg_of_pericenter": 325.8516,
        "meta_mean_anomaly": 196.9859,
        "meta_ephemeris_type": 0,
        "meta_classification_type": "U",
        "meta_norad_cat_id": 34297,
        "meta_element_set_no": 999,
        "meta_rev_at_epoch": 88257,
        "meta_bstar": 0.0001269,
        "meta_mean_motion_dot": 3.48e-06,
        "meta_mean_motion_ddot": 0,
        "tle_line1": "1 34297U 93036MT  25360.15756765  .00000348  00000+0  12690-3 0  9999",
        "tle_line2": "2 34297  74.0484 259.5943 0017792 325.8516 196.9859 14.36640251882576"
      },
      "geometry": {
        "type": "Point",
        "coordinates": [
          -114.87153420453917,
          -40.27963578593756
        ]
      }
    }
  ]
}